[{"OBJECT_NAME":"JILIN-1 GAOFEN 2F","OBJECT_ID":"2021-097A","EPOCH":"2026-03-09T22:15:16.366464","MEAN_MOTION":15.06938169,"ECCENTRICITY":0.00186372,"INCLINATION":97.6538,"RA_OF_ASC_NODE":195.5232,"ARG_OF_PERICENTER":201.1609,"MEAN_ANOMALY":158.885,"EPHEMERIS_TYPE":0,"CLASSIFICATION_TYPE":"U","NORAD_CAT_ID":49338,"ELEMENT_SET_NO":999,"REV_AT_EPOCH":24136,"BSTAR":0.0003789548,"MEAN_MOTION_DOT":5.624e-5,"MEAN_MOTION_DDOT":0},{"OBJECT_NAME":"STARLINK-4284","OBJECT_ID":"2022-076AP","EPOCH":"2026-03-09T06:19:19.865568","MEAN_MOTION":15.08843628,"ECCENTRICITY":0.00013957,"INCLINATION":53.2165,"RA_OF_ASC_NODE":86.0255,"ARG_OF_PERICENTER":78.7498,"MEAN_ANOMALY":281.3651,"EPHEMERIS_TYPE":0,"CLASSIFICATION_TYPE":"U","NORAD_CAT_ID":53023,"ELEMENT_SET_NO":999,"REV_AT_EPOCH":20292,"BSTAR":0.00011026453,"MEAN_MOTION_DOT":1.468e-5,"MEAN_MOTION_DDOT":0}]
